[{"OBJECT_NAME":"SL-8 R/B","OBJECT_ID":"1979-089B","EPOCH":"2026-04-28T19:44:21.795072","MEAN_MOTION":14.42380584,"ECCENTRICITY":0.0015533,"INCLINATION":74.0708,"RA_OF_ASC_NODE":358.2429,"ARG_OF_PERICENTER":161.1633,"MEAN_ANOMALY":199.0101,"EPHEMERIS_TYPE":0,"CLASSIFICATION_TYPE":"U","NORAD_CAT_ID":11574,"ELEMENT_SET_NO":999,"REV_AT_EPOCH":44333,"BSTAR":7.4452e-5,"MEAN_MOTION_DOT":2.2e-6,"MEAN_MOTION_DDOT":0},{"OBJECT_NAME":"SL-14 R/B","OBJECT_ID":"1980-005B","EPOCH":"2026-04-28T20:39:31.707360","MEAN_MOTION":14.90985176,"ECCENTRICITY":0.0015644,"INCLINATION":82.5129,"RA_OF_ASC_NODE":259.6277,"ARG_OF_PERICENTER":1.8182,"MEAN_ANOMALY":358.3091,"EPHEMERIS_TYPE":0,"CLASSIFICATION_TYPE":"U","NORAD_CAT_ID":11672,"ELEMENT_SET_NO":999,"REV_AT_EPOCH":48396,"BSTAR":5.6524e-5,"MEAN_MOTION_DOT":5.85e-6,"MEAN_MOTION_DDOT":0},{"OBJECT_NAME":"SL-8 R/B","OBJECT_ID":"1981-003B","EPOCH":"2026-04-28T18:23:21.683616","MEAN_MOTION":15.12919253,"ECCENTRICITY":0.0255217,"INCLINATION":82.9366,"RA_OF_ASC_NODE":243.6389,"ARG_OF_PERICENTER":4.6529,"MEAN_ANOMALY":355.6983,"EPHEMERIS_TYPE":0,"CLASSIFICATION_TYPE":"U","NORAD_CAT_ID":12139,"ELEMENT_SET_NO":999,"REV_AT_EPOCH":32224,"BSTAR":0.00034945,"MEAN_MOTION_DOT":0.00014028,"MEAN_MOTION_DDOT":0},{"OBJECT_NAME":"SL-3 R/B","OBJECT_ID":"1981-046B","EPOCH":"2026-04-28T19:06:07.178688","MEAN_MOTION":15.43184876,"ECCENTRICITY":0.0018593,"INCLINATION":81.2316,"RA_OF_ASC_NODE":229.5147,"ARG_OF_PERICENTER":202.4007,"MEAN_ANOMALY":157.6427,"EPHEMERIS_TYPE":0,"CLASSIFICATION_TYPE":"U","NORAD_CAT_ID":12465,"ELEMENT_SET_NO":999,"REV_AT_EPOCH":44615,"BSTAR":0.00025609,"MEAN_MOTION_DOT":0.00011459,"MEAN_MOTION_DDOT":0},{"OBJECT_NAME":"SL-3 R/B","OBJECT_ID":"1981-103B","EPOCH":"2026-04-28T19:32:38.517216","MEAN_MOTION":15.21878174,"ECCENTRICITY":0.0014337,"INCLINATION":81.1578,"RA_OF_ASC_NODE":154.6185,"ARG_OF_PERICENTER":116.3116,"MEAN_ANOMALY":243.959,"EPHEMERIS_TYPE":0,"CLASSIFICATION_TYPE":"U","NORAD_CAT_ID":12904,"ELEMENT_SET_NO":999,"REV_AT_EPOCH":98085,"BSTAR":0.00016221,"MEAN_MOTION_DOT":3.725e-5,"MEAN_MOTION_DDOT":0},{"OBJECT_NAME":"SL-3 R/B","OBJECT_ID":"1982-013B","EPOCH":"2026-04-28T19:16:59.712096","MEAN_MOTION":15.22425497,"ECCENTRICITY":0.002236,"INCLINATION":81.1712,"RA_OF_ASC_NODE":102.0036,"ARG_OF_PERICENTER":14.5934,"MEAN_ANOMALY":345.5938,"EPHEMERIS_TYPE":0,"CLASSIFICATION_TYPE":"U","NORAD_CAT_ID":13068,"ELEMENT_SET_NO":999,"REV_AT_EPOCH":41197,"BSTAR":0.00018666,"MEAN_MOTION_DOT":4.369e-5,"MEAN_MOTION_DDOT":0},{"OBJECT_NAME":"SL-3 R/B","OBJECT_ID":"1982-039B","EPOCH":"2026-04-28T19:30:22.457952","MEAN_MOTION":15.10312122,"ECCENTRICITY":0.0028696,"INCLINATION":81.1471,"RA_OF_ASC_NODE":158.1396,"ARG_OF_PERICENTER":153.65,"MEAN_ANOMALY":206.6193,"EPHEMERIS_TYPE":0,"CLASSIFICATION_TYPE":"U","NORAD_CAT_ID":13154,"ELEMENT_SET_NO":999,"REV_AT_EPOCH":38920,"BSTAR":0.00011102,"MEAN_MOTION_DOT":1.86e-5,"MEAN_MOTION_DDOT":0},{"OBJECT_NAME":"SL-3 R/B","OBJECT_ID":"1982-079B","EPOCH":"2026-04-28T17:26:49.540992","MEAN_MOTION":15.25344513,"ECCENTRICITY":0.0023961,"INCLINATION":81.1437,"RA_OF_ASC_NODE":133.9705,"ARG_OF_PERICENTER":0.2274,"MEAN_ANOMALY":359.8966,"EPHEMERIS_TYPE":0,"CLASSIFICATION_TYPE":"U","NORAD_CAT_ID":13403,"ELEMENT_SET_NO":999,"REV_AT_EPOCH":38532,"BSTAR":0.00020832,"MEAN_MOTION_DOT":5.32e-5,"MEAN_MOTION_DDOT":0},{"OBJECT_NAME":"SL-14 R/B","OBJECT_ID":"1982-092B","EPOCH":"2026-04-28T11:02:26.229984","MEAN_MOTION":14.86707879,"ECCENTRICITY":0.002149,"INCLINATION":82.5655,"RA_OF_ASC_NODE":94.8285,"ARG_OF_PERICENTER":132.9739,"MEAN_ANOMALY":344.6446,"EPHEMERIS_TYPE":0,"CLASSIFICATION_TYPE":"U","NORAD_CAT_ID":13553,"ELEMENT_SET_NO":999,"REV_AT_EPOCH":33632,"BSTAR":5.4066e-5,"MEAN_MOTION_DOT":5.07e-6,"MEAN_MOTION_DDOT":0},{"OBJECT_NAME":"SL-3 R/B","OBJECT_ID":"1983-010B","EPOCH":"2026-04-28T18:06:56.961216","MEAN_MOTION":15.47823427,"ECCENTRICITY":0.0015295,"INCLINATION":81.1007,"RA_OF_ASC_NODE":300.7843,"ARG_OF_PERICENTER":230.4411,"MEAN_ANOMALY":129.5484,"EPHEMERIS_TYPE":0,"CLASSIFICATION_TYPE":"U","NORAD_CAT_ID":13819,"ELEMENT_SET_NO":999,"REV_AT_EPOCH":36568,"BSTAR":0.00026228,"MEAN_MOTION_DOT":0.00013719,"MEAN_MOTION_DDOT":0},{"OBJECT_NAME":"SL-3 R/B","OBJECT_ID":"1983-075B","EPOCH":"2026-04-28T19:36:16.019712","MEAN_MOTION":15.39536022,"ECCENTRICITY":0.0022573,"INCLINATION":97.6121,"RA_OF_ASC_NODE":125.3378,"ARG_OF_PERICENTER":54.0458,"MEAN_ANOMALY":306.2877,"EPHEMERIS_TYPE":0,"CLASSIFICATION_TYPE":"U","NORAD_CAT_ID":14208,"ELEMENT_SET_NO":999,"REV_AT_EPOCH":33786,"BSTAR":0.00028479,"MEAN_MOTION_DOT":0.00011203,"MEAN_MOTION_DDOT":0},{"OBJECT_NAME":"COSMOS 1536","OBJECT_ID":"1984-013A","EPOCH":"2026-04-28T21:03:54.444672","MEAN_MOTION":15.24494864,"ECCENTRICITY":0.0016232,"INCLINATION":82.5455,"RA_OF_ASC_NODE":57.926,"ARG_OF_PERICENTER":103.9029,"MEAN_ANOMALY":256.4015,"EPHEMERIS_TYPE":0,"CLASSIFICATION_TYPE":"U","NORAD_CAT_ID":14699,"ELEMENT_SET_NO":999,"REV_AT_EPOCH":28026,"BSTAR":0.00026768,"MEAN_MOTION_DOT":6.635e-5,"MEAN_MOTION_DDOT":0},{"OBJECT_NAME":"SL-14 R/B","OBJECT_ID":"1984-027B","EPOCH":"2026-04-28T17:22:37.837920","MEAN_MOTION":14.86024858,"ECCENTRICITY":0.0018442,"INCLINATION":82.5442,"RA_OF_ASC_NODE":198.0966,"ARG_OF_PERICENTER":163.195,"MEAN_ANOMALY":196.9882,"EPHEMERIS_TYPE":0,"CLASSIFICATION_TYPE":"U","NORAD_CAT_ID":14820,"ELEMENT_SET_NO":999,"REV_AT_EPOCH":25506,"BSTAR":4.6226e-5,"MEAN_MOTION_DOT":4.3e-6,"MEAN_MOTION_DDOT":0},{"OBJECT_NAME":"SL-8 R/B","OBJECT_ID":"1985-006B","EPOCH":"2026-04-28T15:01:30.209376","MEAN_MOTION":14.37813097,"ECCENTRICITY":0.0017208,"INCLINATION":74.0449,"RA_OF_ASC_NODE":169.2642,"ARG_OF_PERICENTER":70.042,"MEAN_ANOMALY":45.6148,"EPHEMERIS_TYPE":0,"CLASSIFICATION_TYPE":"U","NORAD_CAT_ID":15483,"ELEMENT_SET_NO":999,"REV_AT_EPOCH":16120,"BSTAR":8.5567e-5,"MEAN_MOTION_DOT":2.32e-6,"MEAN_MOTION_DDOT":0},{"OBJECT_NAME":"SL-12 R/B(2)","OBJECT_ID":"1985-042D","EPOCH":"2026-04-28T18:46:22.716768","MEAN_MOTION":14.2199589,"ECCENTRICITY":0.0033581,"INCLINATION":71.1093,"RA_OF_ASC_NODE":341.8992,"ARG_OF_PERICENTER":45.3032,"MEAN_ANOMALY":26.6222,"EPHEMERIS_TYPE":0,"CLASSIFICATION_TYPE":"U","NORAD_CAT_ID":15772,"ELEMENT_SET_NO":999,"REV_AT_EPOCH":12151,"BSTAR":3.5635e-5,"MEAN_MOTION_DOT":3.2e-7,"MEAN_MOTION_DDOT":0},{"OBJECT_NAME":"SL-14 R/B","OBJECT_ID":"1985-069B","EPOCH":"2026-04-28T16:38:36.652128","MEAN_MOTION":14.86479526,"ECCENTRICITY":0.0019568,"INCLINATION":82.5272,"RA_OF_ASC_NODE":337.9229,"ARG_OF_PERICENTER":30.8661,"MEAN_ANOMALY":329.3701,"EPHEMERIS_TYPE":0,"CLASSIFICATION_TYPE":"U","NORAD_CAT_ID":15945,"ELEMENT_SET_NO":999,"REV_AT_EPOCH":18026,"BSTAR":4.7961e-5,"MEAN_MOTION_DOT":4.5e-6,"MEAN_MOTION_DDOT":0},{"OBJECT_NAME":"SL-16 R/B","OBJECT_ID":"1985-097B","EPOCH":"2026-04-28T20:07:38.049312","MEAN_MOTION":14.16605411,"ECCENTRICITY":0.0007918,"INCLINATION":71.0046,"RA_OF_ASC_NODE":34.9723,"ARG_OF_PERICENTER":196.9329,"MEAN_ANOMALY":222.1338,"EPHEMERIS_TYPE":0,"CLASSIFICATION_TYPE":"U","NORAD_CAT_ID":16182,"ELEMENT_SET_NO":999,"REV_AT_EPOCH":9433,"BSTAR":-6.6271e-5,"MEAN_MOTION_DOT":-1.8e-6,"MEAN_MOTION_DDOT":0}]
