SL-8 R/B                
1 11574U 79089B   26118.82247448  .00000220  00000+0  74452-4 0  9997
2 11574  74.0708 358.2429 0015533 161.1633 199.0101 14.42380584443334
SL-14 R/B               
1 11672U 80005B   26118.86078365  .00000585  00000+0  56524-4 0  9994
2 11672  82.5129 259.6277 0015644   1.8182 358.3091 14.90985176483963
SL-8 R/B                
1 12139U 81003B   26118.76622319  .00014028  00000+0  34945-3 0  9994
2 12139  82.9366 243.6389 0255217   4.6529 355.6983 15.12919253322245
SL-3 R/B                
1 12465U 81046B   26118.79591642  .00011459  00000+0  25609-3 0  9992
2 12465  81.2316 229.5147 0018593 202.4007 157.6427 15.43184876446151
SL-3 R/B                
1 12904U 81103B   26118.81433469  .00003725  00000+0  16221-3 0  9996
2 12904  81.1578 154.6185 0014337 116.3116 243.9590 15.21878174980851
SL-3 R/B                
1 13068U 82013B   26118.80346889  .00004369  00000+0  18666-3 0  9997
2 13068  81.1712 102.0036 0022360  14.5934 345.5938 15.22425497411971
SL-3 R/B                
1 13154U 82039B   26118.81275993  .00001860  00000+0  11102-3 0  9990
2 13154  81.1471 158.1396 0028696 153.6500 206.6193 15.10312122389209
SL-3 R/B                
1 13403U 82079B   26118.72696228  .00005320  00000+0  20832-3 0  9994
2 13403  81.1437 133.9705 0023961   0.2274 359.8966 15.25344513385321
SL-14 R/B               
1 13553U 82092B   26118.46002581  .00000507  00000+0  54066-4 0  9998
2 13553  82.5655  94.8285 0021490 132.9739 344.6446 14.86707879336321
SL-3 R/B                
1 13819U 83010B   26118.75482594  .00013719  00000+0  26228-3 0  9999
2 13819  81.1007 300.7843 0015295 230.4411 129.5484 15.47823427365687
SL-3 R/B                
1 14208U 83075B   26118.81685208  .00011203  00000+0  28479-3 0  9993
2 14208  97.6121 125.3378 0022573  54.0458 306.2877 15.39536022337863
COSMOS 1536             
1 14699U 84013A   26118.87771348  .00006635  00000+0  26768-3 0  9999
2 14699  82.5455  57.9260 0016232 103.9029 256.4015 15.24494864280265
SL-14 R/B               
1 14820U 84027B   26118.72404905  .00000430  00000+0  46226-4 0  9995
2 14820  82.5442 198.0966 0018442 163.1950 196.9882 14.86024858255062
SL-8 R/B                
1 15483U 85006B   26118.62604409  .00000232  00000+0  85567-4 0  9990
2 15483  74.0449 169.2642 0017208  70.0420  45.6148 14.37813097161203
SL-12 R/B(2)            
1 15772U 85042D   26118.78220737  .00000032  00000+0  35635-4 0  9995
2 15772  71.1093 341.8992 0033581  45.3032  26.6222 14.21995890121516
SL-14 R/B               
1 15945U 85069B   26118.69347977  .00000450  00000+0  47961-4 0  9991
2 15945  82.5272 337.9229 0019568  30.8661 329.3701 14.86479526180264
SL-16 R/B               
1 16182U 85097B   26118.83863483 -.00000180  00000+0 -66271-4 0  9994
2 16182  71.0046  34.9723 0007918 196.9329 222.1338 14.16605411 94339
